ORBCOMM FM33            
1 25983U 99065D   26007.30254047  .00001326  00000+0  45617-3 0  9993
2 25983  45.0277 108.1163 0006843   2.5122 357.5761 14.40615308365490
ORBCOMM FM36            
1 25984U 99065E   26008.01574705  .00000952  00000+0  35300-3 0  9991
2 25984  45.0371 199.7512 0002481 241.7315 118.3284 14.38790888363917
ORBCOMM FM35            
1 25985U 99065F   26007.59081220  .00001082  00000+0  40345-3 0  9999
2 25985  45.0377 208.4721 0003513 348.8250  11.2520 14.37693228364192
ORBCOMM FM34            
1 25986U 99065G   26007.97533080  .00000710  00000+0  28124-3 0  9996
2 25986  45.0371 207.1287 0003302 294.5191  65.5313 14.37631409364361
ORBCOMM FM38            
1 33060U 08031A   26004.76613348  .00003077  00000+0  40658-3 0  9996
2 33060  48.4397  73.8972 0004877 200.7860 159.2858 14.82393776944649
ORBCOMM FM41            
1 33061U 08031B   26008.20696046  .00001393  00000+0  20085-3 0  9997
2 33061  48.4433  65.9803 0004038 200.8660 200.6987 14.81957752944636
ORBCOMM FM29            
1 33062U 08031C   26008.17162784  .00001776  00000+0  24768-3 0  9998
2 33062  48.4384  73.6769 0005703 196.9269 190.9561 14.82116427944545
ORBCOMM FM39            
1 33063U 08031D   26007.25827712  .00002104  00000+0  29924-3 0  9991
2 33063  48.4394 104.6324 0006292 160.4312 199.6846 14.80534230944027
